NORAD_CAT_ID,OBJECT_NAME,OBJECT_TYPE,EPOCH,MEAN_MOTION,ECCENTRICITY,INCLINATION,RA_OF_ASC_NODE,ARG_OF_PERICENTER,MEAN_ANOMALY,BSTAR,MEAN_MOTION_DOT,MEAN_MOTION_DDOT,TLE_LINE0,TLE_LINE1,TLE_LINE2,SEMIMAJOR_AXIS,PERIOD,APOGEE,PERIGEE,DECAYED
52841.0,STARLINK-4065,PAYLOAD,2024-08-06 23:52:42,15.08863562,0.0001494,53.216,116.473,66.4444,293.6705,0.0023973,0.00038096,0.0,0 STARLINK-4065,1 52841U 22062M   24219.99493670  .00038096  00000-0  23973-2 0  9999,2 52841  53.2160 116.4730 0001494  66.4444 293.6705 15.08863562118272,6917.808,95.436,540.707,538.64,0.0
52841.0,STARLINK-4065,PAYLOAD,2024-08-07 20:32:42,15.0888811,0.0001083,53.216,112.6071,91.3447,268.7669,0.0023804,0.0003785,0.0,0 STARLINK-4065,1 52841U 22062M   24220.85604603  .00037850  00000-0  23804-2 0  9996,2 52841  53.2160 112.6071 0001083  91.3447 268.7669 15.08888110118898,6917.733,95.435,540.348,538.849,0.0
52841.0,STARLINK-4065,PAYLOAD,2024-08-08 02:54:14,15.08884,0.0001879,53.2163,111.4182,12.0441,348.0596,0.0024122,0.00038358,0.0,0 STARLINK-4065,1 52841U 22062M   24221.12100332  .00038358  00000-0  24122-2 0  9995,2 52841  53.2163 111.4182 0001879  12.0441 348.0596 15.08884000118444,6917.746,95.435,540.911,538.311,0.0
52841.0,STARLINK-4065,PAYLOAD,2024-08-08 21:58:52,15.08854329,0.0001062,53.2159,107.8505,102.0278,258.0833,0.0012589,0.00019812,0.0,0 STARLINK-4065,1 52841U 22062M   24221.91588042  .00019812  00000-0  12589-2 0  9998,2 52841  53.2159 107.8505 0001062 102.0278 258.0833 15.08854329119052,6917.837,95.437,540.436,538.967,0.0
52841.0,STARLINK-4065,PAYLOAD,2024-08-08 23:34:15,15.08850916,0.0001182,53.2151,107.5454,66.5889,293.5227,0.0010291,0.00016133,0.0,0 STARLINK-4065,1 52841U 22062M   24221.98212156  .00016133  00000-0  10291-2 0  9996,2 52841  53.2151 107.5454 0001182  66.5889 293.5227 15.08850916118574,6917.847,95.437,540.53,538.894,0.0
52841.0,STARLINK-4065,PAYLOAD,2024-08-09 09:06:33,15.08871131,0.0001198,53.2159,105.7604,58.1622,301.9487,0.00075508,0.0001176,0.0,0 STARLINK-4065,1 52841U 22062M   24222.37955230  .00011760  00000-0  75508-3 0  9991,2 52841  53.2159 105.7604 0001198  58.1622 301.9487 15.08871131118639,6917.785,95.436,540.479,538.821,0.0
52841.0,STARLINK-4065,PAYLOAD,2024-08-09 20:14:16,15.08829751,0.0001444,53.2171,103.6895,98.8042,261.3114,-0.00030868,-5.196e-05,0.0,0 STARLINK-4065,1 52841U 22062M   24222.84324265 -.00005196  00000-0 -30868-3 0  9999,2 52841  53.2171 103.6895 0001444  98.8042 261.3114 15.08829751119192,6917.912,95.438,540.776,538.778,0.0
52841.0,STARLINK-4065,PAYLOAD,2024-08-09 21:49:39,15.0882541,0.000141,53.2171,103.3925,101.1537,258.9613,-0.00020969,-3.622e-05,0.0,0 STARLINK-4065,1 52841U 22062M   24222.90948357 -.00003622  00000-0 -20969-3 0  9993,2 52841  53.2171 103.3925 0001410 101.1537 258.9613 15.08825410118714,6917.925,95.438,540.765,538.815,0.0
52841.0,STARLINK-4065,PAYLOAD,2024-08-10 21:40:26,15.0885042,0.0001417,53.2167,98.9323,106.603,253.5118,0.0010288,0.00016128,0.0,0 STARLINK-4065,1 52841U 22062M   24223.90308821  .00016128  00000-0  10288-2 0  9995,2 52841  53.2167  98.9323 0001417 106.6030 253.5118 15.08850420119356,6917.849,95.437,540.694,538.733,0.0
52841.0,STARLINK-4065,PAYLOAD,2024-08-11 00:51:12,15.08879243,0.0001304,53.2154,98.3292,137.7981,222.3111,0.0022193,0.00035247,0.0,0 STARLINK-4065,1 52841U 22062M   24224.03556125  .00035247  00000-0  22193-2 0  9993,2 52841  53.2154  98.3292 0001304 137.7981 222.3111 15.08879243119379,6917.76,95.435,540.528,538.723,0.0
52841.0,STARLINK-4065,PAYLOAD,2024-08-11 08:48:07,15.08909654,0.0001972,53.216,96.8426,47.0072,313.1085,0.0028907,0.00046107,0.0,0 STARLINK-4065,1 52841U 22062M   24224.36675204  .00046107  00000-0  28907-2 0  9995,2 52841  53.2160  96.8426 0001972  47.0072 313.1085 15.08909654119428,6917.667,95.433,540.897,538.168,0.0
52841.0,STARLINK-4065,PAYLOAD,2024-08-11 21:31:13,15.08836859,0.0002117,53.2154,94.471,62.0784,298.0423,0.00073412,0.00011414,0.0,0 STARLINK-4065,1 52841U 22062M   24224.89668088  .00011414  00000-0  73412-3 0  9990,2 52841  53.2154  94.4710 0002117  62.0784 298.0423 15.08836859119502,6917.89,95.438,541.22,538.29,0.0
52841.0,STARLINK-4065,PAYLOAD,2024-08-12 08:38:54,15.08865076,0.0001355,53.2159,92.3869,54.4871,305.6248,0.0025553,0.00040642,0.0,0 STARLINK-4065,1 52841U 22062M   24225.36035808  .00040642  00000-0  25553-2 0  9998,2 52841  53.2159  92.3869 0001355  54.4871 305.6248 15.08865076119574,6917.804,95.436,540.606,538.731,0.0
52841.0,STARLINK-4065,PAYLOAD,2024-08-12 21:21:59,15.08895777,9.37e-05,53.2162,90.0052,81.4644,278.6454,0.0047591,0.00076391,0.0,0 STARLINK-4065,1 52841U 22062M   24225.89027575  .00076391  00000-0  47591-2 0  9994,2 52841  53.2162  90.0052 0000937  81.4644 278.6454 15.08895777119658,6917.71,95.434,540.223,538.927,0.0
52841.0,STARLINK-4065,PAYLOAD,2024-08-13 08:29:43,15.08792901,0.0001553,53.2174,87.9232,78.4556,281.661,0.0013104,0.00020602,0.0,0 STARLINK-4065,1 52841U 22062M   24226.35397574  .00020602  00000-0  13104-2 0  9992,2 52841  53.2174  87.9232 0001553  78.4556 281.6610 15.08792901119720,6918.024,95.441,540.964,538.815,0.0
52841.0,STARLINK-4065,PAYLOAD,2024-08-13 21:12:50,15.08786867,0.0001072,53.2162,85.547,75.8485,284.2626,0.0026177,0.00041558,0.0,0 STARLINK-4065,1 52841U 22062M   24226.88391950  .00041558  00000-0  26177-2 0  9999,2 52841  53.2162  85.5470 0001072  75.8485 284.2626 15.08786867119802,6918.043,95.441,540.649,539.166,0.0
52841.0,STARLINK-4065,PAYLOAD,2024-08-14 00:23:37,15.08804577,0.0002377,53.2169,84.9499,89.5638,270.5626,0.0018506,0.00029259,0.0,0 STARLINK-4065,1 52841U 22062M   24227.01640291  .00029259  00000-0  18506-2 0  9991,2 52841  53.2169  84.9499 0002377  89.5638 270.5626 15.08804577119339,6917.989,95.44,541.498,538.209,0.0
52841.0,STARLINK-4065,PAYLOAD,2024-08-14 19:28:13,15.08876705,0.0001217,53.2169,81.3831,91.0108,269.1023,0.00092047,0.00014406,0.0,0 STARLINK-4065,1 52841U 22062M   24227.81126514  .00014406  00000-0  92047-3 0  9997,2 52841  53.2169  81.3831 0001217  91.0108 269.1023 15.08876705119946,6917.768,95.435,540.475,538.791,0.0
52841.0,STARLINK-4065,PAYLOAD,2024-08-14 21:03:36,15.08879354,0.00012,53.2168,81.0857,88.9089,271.2041,0.0009546,0.00014953,0.0,0 STARLINK-4065,1 52841U 22062M   24227.87750339  .00014953  00000-0  95460-3 0  9990,2 52841  53.2168  81.0857 0001200  88.9089 271.2041 15.08879354119469,6917.76,95.435,540.455,538.795,0.0
52841.0,STARLINK-4065,PAYLOAD,2024-08-15 20:54:22,15.0887459,5.76e-05,53.2154,76.6238,356.592,3.5068,0.0011858,0.00018652,0.0,0 STARLINK-4065,1 52841U 22062M   24228.87109200  .00018652  00000-0  11858-2 0  9994,2 52841  53.2154  76.6238 0000576 356.5920   3.5068 15.08874590120105,6917.775,95.435,540.038,539.241,0.0
52841.0,STARLINK-4065,PAYLOAD,2024-08-17 20:35:54,15.08888529,9.18e-05,53.216,67.7058,63.235,296.8736,0.0010911,0.00017143,0.0,0 STARLINK-4065,1 52841U 22062M   24230.85826540  .00017143  00000-0  10911-2 0  9991,2 52841  53.2160  67.7058 0000918  63.2350 296.8736 15.08888529120401,6917.732,95.434,540.232,538.962,0.0
52841.0,STARLINK-4065,PAYLOAD,2024-08-18 20:26:41,15.08852788,0.0001171,53.216,63.2448,86.2194,273.8932,0.00065706,0.00010188,0.0,0 STARLINK-4065,1 52841U 22062M   24231.85186904  .00010188  00000-0  65706-3 0  9990,2 52841  53.2160  63.2448 0001171  86.2194 273.8932 15.08852788120555,6917.841,95.437,540.516,538.896,0.0
52841.0,STARLINK-4065,PAYLOAD,2024-08-19 05:59:00,15.08863122,0.0001464,53.2168,61.461,69.1865,290.9284,0.0011619,0.00018264,0.0,0 STARLINK-4065,1 52841U 22062M   24232.24930749  .00018264  00000-0  11619-2 0  9994,2 52841  53.2168  61.4610 0001464  69.1865 290.9284 15.08863122120121,6917.81,95.436,540.687,538.662,0.0
52841.0,STARLINK-4065,PAYLOAD,2024-08-20 12:11:22,15.08828859,0.0001806,53.2156,55.8089,83.6714,276.4484,0.0012798,0.00020133,0.0,0 STARLINK-4065,1 52841U 22062M   24233.50789644  .00020133  00000-0  12798-2 0  9997,2 52841  53.2156  55.8089 0001806  83.6714 276.4484 15.08828859120803,6917.914,95.438,541.029,538.53,0.0
52841.0,STARLINK-4065,PAYLOAD,2024-08-21 12:02:09,15.08838044,0.0001589,53.2163,51.3498,78.8808,281.2363,0.00050538,7.764e-05,0.0,0 STARLINK-4065,1 52841U 22062M   24234.50150077  .00007764  00000-0  50538-3 0  9990,2 52841  53.2163  51.3498 0001589  78.8808 281.2363 15.08838044120957,6917.886,95.438,540.851,538.652,0.0
52841.0,STARLINK-4065,PAYLOAD,2024-08-21 15:12:55,15.08837835,0.0001535,53.2162,50.7541,79.9878,280.1287,0.00040823,6.215e-05,0.0,0 STARLINK-4065,1 52841U 22062M   24234.63398106  .00006215  00000-0  40823-3 0  9997,2 52841  53.2162  50.7541 0001535  79.9878 280.1287 15.08837835120486,6917.887,95.438,540.814,538.69,0.0
52841.0,STARLINK-4065,PAYLOAD,2024-08-21 16:48:19,15.08838944,0.0001528,53.2164,50.4569,80.2286,279.8878,0.00049286,7.564e-05,0.0,0 STARLINK-4065,1 52841U 22062M   24234.70022163  .00007564  00000-0  49286-3 0  9992,2 52841  53.2164  50.4569 0001528  80.2286 279.8878 15.08838944120499,6917.884,95.438,540.806,538.692,0.0
